H1 CPF  1  MCC 2022  3 25 12  5841 larets
H2  0304206 5557    27944 2022 03 24 23 55 00 2022 03 30 00 07 00   180 1 1  0 0 0
H9
10 0 59665 11220.000000 0     -3460539.969        58061.452      6141866.012
10 0 59665 11400.000000 0     -4505421.835       525895.996      5396843.320
10 0 59665 11580.000000 0     -5373572.745       999654.705      4453505.505
10 0 59665 11760.000000 0     -6033263.425      1456962.085      3346352.017
10 0 59665 11940.000000 0     -6460965.349      1875297.411      2116012.356
10 0 59665 12120.000000 0     -6642265.113      2233067.567       807745.153
10 0 59665 12300.000000 0     -6572405.050      2510669.929      -530271.201
10 0 59665 12480.000000 0     -6256408.474      2691484.827     -1848781.683
10 0 59665 12660.000000 0     -5708783.621      2762743.494     -3099340.891
10 0 59665 12840.000000 0     -4952821.221      2716225.114     -4236154.985
10 0 59665 13020.000000 0     -4019531.031      2548743.559     -5217786.206
10 0 59665 13200.000000 0     -2946289.162      2262406.731     -6008647.247
10 0 59665 13380.000000 0     -1775277.631      1864644.988     -6580238.812
10 0 59665 13560.000000 0      -551787.884      1368011.657     -6912104.594
10 0 59665 13740.000000 0       677535.058       789769.195     -6992483.261
10 0 59665 13920.000000 0      1866444.236       151282.896     -6818667.054
10 0 59665 14100.000000 0      2970796.888      -522762.120     -6397066.477
10 0 59665 14280.000000 0      3950160.127     -1205296.664     -5742977.677
10 0 59665 14460.000000 0      4769271.213     -1867926.868     -4880063.352
10 0 59665 14640.000000 0      5399313.480     -2482089.491     -3839554.824
10 0 59665 14820.000000 0      5818959.943     -3020260.985     -2659179.553
10 0 59665 15000.000000 0      6015139.518     -3457168.798     -1381836.774
10 0 59665 15180.000000 0      5983484.079     -3770949.953       -54058.461
10 0 59665 15360.000000 0      5728429.329     -3944200.583      1275689.867
10 0 59665 15540.000000 0      5262956.413     -3964861.289      2558804.159
10 0 59665 15720.000000 0      4607977.558     -3826883.977      3748353.532
10 0 59665 15900.000000 0      3791403.071     -3530646.460      4800821.545
10 0 59665 16080.000000 0      2846938.821     -3083098.755      5677710.817
10 0 59665 16260.000000 0      1812671.417     -2497630.257      6346944.922
10 0 59665 16440.000000 0       729513.437     -1793668.193      6784020.038
10 0 59665 16620.000000 0      -360424.857      -996027.362      6972875.659
10 0 59665 16800.000000 0     -1415472.373      -134033.430      6906466.702
10 0 59665 16980.000000 0     -2395987.030       759551.155      6587027.997
10 0 59665 17160.000000 0     -3265850.165      1649766.249      6026024.678
10 0 59665 17340.000000 0     -3993817.694      2500819.286      5243784.616
10 0 59665 17520.000000 0     -4554683.406      3277534.069      4268812.799
10 0 59665 17700.000000 0     -4930205.764      3946827.316      3136790.069
10 0 59665 17880.000000 0     -5109752.099      4479147.201      1889281.153
10 0 59665 18060.000000 0     -5090625.168      4849808.303       572191.519
10 0 59665 18240.000000 0     -4878048.288      5040144.811      -765971.921
10 0 59665 18420.000000 0     -4484808.295      5038418.613     -2075957.357
10 0 59665 18600.000000 0     -3930565.908      4840430.792     -3309657.560
10 0 59665 18780.000000 0     -3240878.068      4449798.808     -4421932.814
10 0 59665 18960.000000 0     -2445992.542      3877894.542     -5372279.016
10 0 59665 19140.000000 0     -1579492.223      3143464.609     -6126276.171
10 0 59665 19320.000000 0      -676856.794      2271958.805     -6656782.055
10 0 59665 19500.000000 0       225994.958      1294598.802     -6944835.019
10 0 59665 19680.000000 0      1094117.815       247237.240     -6980256.241
10 0 59665 19860.000000 0      1894866.019      -830953.382     -6761956.171
10 0 59665 20040.000000 0      2599091.464     -1898923.710     -6297940.633
10 0 59665 20220.000000 0      3182180.632     -2915276.036     -5605028.194
10 0 59665 20400.000000 0      3624907.919     -3839842.823     -4708286.544
10 0 59665 20580.000000 0      3914075.119     -4635266.619     -3640179.137
10 0 59665 20760.000000 0      4042910.233     -5268512.853     -2439446.723
10 0 59665 20940.000000 0      4011215.357     -5712264.713     -1149746.669
10 0 59665 21120.000000 0      3825243.862     -5946127.449       181919.870
10 0 59665 21300.000000 0      3497307.203     -5957575.200      1506931.944
10 0 59665 21480.000000 0      3045127.689     -5742587.566      2776853.146
10 0 59665 21660.000000 0      2490965.666     -5305935.130      3945236.495
10 0 59665 21840.000000 0      1860569.036     -4661104.390      4969344.896
10 0 59665 22020.000000 0      1182002.437     -3829867.542      5811722.329
10 0 59665 22200.000000 0       484410.931     -2841516.928      6441556.368
10 0 59665 22380.000000 0      -203225.258     -1731801.854      6835779.523
10 0 59665 22560.000000 0      -853285.489      -541621.832      6979885.781
10 0 59665 22740.000000 0     -1440611.537       684481.982      6868453.883
10 0 59665 22920.000000 0     -1943482.517      1899991.052      6505358.348
10 0 59665 23100.000000 0     -2344428.031      3058172.776      5903662.269
10 0 59665 23280.000000 0     -2630852.069      4113888.386      5085191.616
10 0 59665 23460.000000 0     -2795446.876      5025385.372      4079793.821
10 0 59665 23640.000000 0     -2836378.411      5756006.090      2924285.490
10 0 59665 23820.000000 0     -2757228.717      6275730.465      1661111.106
10 0 59665 24000.000000 0     -2566695.059      6562472.803       336760.440
10 0 59665 24180.000000 0     -2278057.353      6603064.978      -999993.822
10 0 59665 24360.000000 0     -1908441.200      6393867.760     -2299966.770
10 0 59665 24540.000000 0     -1477910.535      5940960.091     -3515449.989
10 0 59665 24720.000000 0     -1008446.885      5259906.980     -4602005.276
10 0 59665 24900.000000 0      -522878.806      4375141.900     -5520096.905
10 0 59665 25080.000000 0       -43813.127      3319002.826     -6236502.709
10 0 59665 25260.000000 0       407382.459      2130473.017     -6725460.741
10 0 59665 25440.000000 0       811497.641       853692.010     -6969518.797
10 0 59665 25620.000000 0      1152265.565      -463695.877     -6960085.540
10 0 59665 25800.000000 0      1416992.336     -1772303.654     -6697680.860
10 0 59665 25980.000000 0      1597012.310     -3022815.314     -6191888.969
10 0 59665 26160.000000 0      1687961.973     -4167804.489     -5461029.783
10 0 59665 26340.000000 0      1689863.328     -5163516.851     -4531542.387
10 0 59665 26520.000000 0      1607015.166     -5971545.466     -3437084.876
10 0 59665 26700.000000 0      1447693.355     -6560344.464     -2217372.498
10 0 59665 26880.000000 0      1223670.868     -6906511.804      -916773.141
10 0 59665 27060.000000 0       949577.469     -6995774.894       417295.886
10 0 59665 27240.000000 0       642126.832     -6823621.722      1736110.289
10 0 59665 27420.000000 0       319250.357     -6395540.555      2991448.455
10 0 59665 27600.000000 0         -819.093     -5726845.799      4137391.672
10 0 59665 27780.000000 0      -300468.044     -4842099.297      5132024.348
10 0 59665 27960.000000 0      -563577.477     -3774168.114      5938969.952
10 0 59665 28140.000000 0      -776309.036     -2562960.996      6528709.919
10 0 59665 28320.000000 0      -927768.233     -1253902.916      6879635.740
10 0 59665 28500.000000 0     -1010517.975       103778.428      6978814.806
10 0 59665 28680.000000 0     -1020924.558      1458904.168      6822460.293
10 0 59665 28860.000000 0      -959318.606      2760272.310      6416086.609
10 0 59665 29040.000000 0      -829964.985      3958598.518      5774346.250
10 0 59665 29220.000000 0      -640843.858      5008407.515      4920546.558
10 0 59665 29400.000000 0      -403248.169      5869809.472      3885849.947
10 0 59665 29580.000000 0      -131211.721      6510086.743      2708167.709
10 0 59665 29760.000000 0       159206.232      6905024.413      1430779.558
10 0 59665 29940.000000 0       450753.916      7039904.114       100706.224
10 0 59665 30120.000000 0       725892.390      6910096.136     -1233080.265
10 0 59665 30300.000000 0       967720.047      6521220.117     -2521532.425
10 0 59665 30480.000000 0      1160862.122      5888866.065     -3717395.285
10 0 59665 30660.000000 0      1292283.782      5037899.693     -4776981.019
10 0 59665 30840.000000 0      1351985.558      4001393.509     -5661772.061
10 0 59665 31020.000000 0      1333546.277      2819251.888     -6339788.008
10 0 59665 31200.000000 0      1234490.542      1536606.482     -6786678.621
10 0 59665 31380.000000 0      1056470.281       202060.515     -6986519.718
10 0 59665 31560.000000 0       805258.035     -1134150.055     -6932311.798
10 0 59665 31740.000000 0       490552.806     -2422019.168     -6626176.028
10 0 59665 31920.000000 0       125608.960     -3613597.152     -6079260.150
10 0 59665 32100.000000 0      -273303.196     -4664744.707     -5311359.986
10 0 59665 32280.000000 0      -687586.669     -5536757.712     -4350251.160
10 0 59665 32460.000000 0     -1097135.999     -6197811.233     -3230744.984
10 0 59665 32640.000000 0     -1481254.709     -6624165.174     -1993480.430
10 0 59665 32820.000000 0     -1819632.487     -6801076.089      -683482.808
10 0 59665 33000.000000 0     -2093336.093     -6723364.745       651469.631
10 0 59665 33180.000000 0     -2285764.887     -6395599.473      1962606.951
10 0 59665 33360.000000 0     -2383520.912     -5831880.260      3201981.585
10 0 59665 33540.000000 0     -2377144.717     -5055230.648      4324254.535
10 0 59665 33720.000000 0     -2261678.543     -4096631.832      5288372.478
10 0 59665 33900.000000 0     -2037033.063     -2993752.454      6059071.408
10 0 59665 34080.000000 0     -1708137.805     -1789432.459      6608151.292
99
